{"type": "FeatureCollection", "features": [ {"type": "Feature", "properties": {"norad_id": 31444, "name": "FENGYUN 1C DEB", "group": "fengyun-1c-debris", "lat": -81.06530898696994, "lon": 16.55032115247952, "alt_km": 712.4754361794285, "timestamp": "2025-12-09T21:34:11.690425+00:00", "meta": {"OBJECT_NAME": "FENGYUN 1C DEB", "OBJECT_ID": "1999-025BUG", "EPOCH": "2025-12-08T13:18:21.037824", "MEAN_MOTION": 14.69793542, "ECCENTRICITY": 0.0062632, "INCLINATION": 98.9278, "RA_OF_ASC_NODE": 284.2035, "ARG_OF_PERICENTER": 85.0243, "MEAN_ANOMALY": 275.8106, "EPHEMERIS_TYPE": 0, "CLASSIFICATION_TYPE": "U", "NORAD_CAT_ID": 31444, "ELEMENT_SET_NO": 999, "REV_AT_EPOCH": 97427, "BSTAR": 0.0020662, "MEAN_MOTION_DOT": 0.0001267, "MEAN_MOTION_DDOT": 0}, "tle": {"line1": "1 31444U 99025BUG 25342.55441016  .00012670  00000+0  20662-2 0  9996", "line2": "2 31444  98.9278 284.2035 0062632  85.0243 275.8106 14.69793542974274"}}, "geometry": {"type": "Point", "coordinates": [16.55032115247952, -81.06530898696994]}}, {"type": "Feature", "properties": {"norad_id": 31447, "name": "FENGYUN 1C DEB", "group": "fengyun-1c-debris", "lat": 58.184163846353634, "lon": 10.298796376081048, "alt_km": 710.9696429623464, "timestamp": "2025-12-09T21:34:11.690435+00:00", "meta": {"OBJECT_NAME": "FENGYUN 1C DEB", "OBJECT_ID": "1999-025BUK", "EPOCH": "2025-12-08T20:00:32.884416", "MEAN_MOTION": 14.24029872, "ECCENTRICITY": 0.02304586, "INCLINATION": 98.9916, "RA_OF_ASC_NODE": 23.9949, "ARG_OF_PERICENTER": 6.4135, "MEAN_ANOMALY": 353.9906, "EPHEMERIS_TYPE": 0, "CLASSIFICATION_TYPE": "U", "NORAD_CAT_ID": 31447, "ELEMENT_SET_NO": 999, "REV_AT_EPOCH": 64796, "BSTAR": 0.00031342384, "MEAN_MOTION_DOT": 8.95e-06, "MEAN_MOTION_DDOT": 0}, "tle": {"line1": "1 31447U 99025BUK 25342.83371394  .00000895  00000+0  31342-3 0  9995", "line2": "2 31447  98.9916  23.9949 0230458   6.4135 353.9906 14.24029872647966"}}, "geometry": {"type": "Point", "coordinates": [10.298796376081048, 58.184163846353634]}}, {"type": "Feature", "properties": {"norad_id": 31448, "name": "FENGYUN 1C DEB", "group": "fengyun-1c-debris", "lat": 33.20896055451635, "lon": -10.351301695267898, "alt_km": 839.1951402410577, "timestamp": "2025-12-09T21:34:11.690445+00:00", "meta": {"OBJECT_NAME": "FENGYUN 1C DEB", "OBJECT_ID": "1999-025BUL", "EPOCH": "2025-12-08T18:30:03.962016", "MEAN_MOTION": 14.27794903, "ECCENTRICITY": 0.00587895, "INCLINATION": 98.5002, "RA_OF_ASC_NODE": 354.1694, "ARG_OF_PERICENTER": 215.8716, "MEAN_ANOMALY": 143.8511, "EPHEMERIS_TYPE": 0, "CLASSIFICATION_TYPE": "U", "NORAD_CAT_ID": 31448, "ELEMENT_SET_NO": 999, "REV_AT_EPOCH": 64247, "BSTAR": 0.0012322494, "MEAN_MOTION_DOT": 3.059e-05, "MEAN_MOTION_DDOT": 0}, "tle": {"line1": "1 31448U 99025BUL 25342.77087919  .00003059  00000+0  12322-2 0  9997", "line2": "2 31448  98.5002 354.1694 0058789 215.8716 143.8511 14.27794903642477"}}, "geometry": {"type": "Point", "coordinates": [-10.351301695267898, 33.20896055451635]}}, {"type": "Feature", "properties": {"norad_id": 31449, "name": "FENGYUN 1C DEB", "group": "fengyun-1c-debris", "lat": -41.448288800436444, "lon": 50.083886853515864, "alt_km": 707.2701782415361, "timestamp": "2025-12-09T21:34:11.690468+00:00", "meta": {"OBJECT_NAME": "FENGYUN 1C DEB", "OBJECT_ID": "1999-025BUM", "EPOCH": "2025-12-08T22:18:49.231872", "MEAN_MOTION": 14.33700462, "ECCENTRICITY": 0.0144054, "INCLINATION": 98.5555, "RA_OF_ASC_NODE": 41.4858, "ARG_OF_PERICENTER": 280.1106, "MEAN_ANOMALY": 78.3855, "EPHEMERIS_TYPE": 0, "CLASSIFICATION_TYPE": "U", "NORAD_CAT_ID": 31449, "ELEMENT_SET_NO": 999, "REV_AT_EPOCH": 97582, "BSTAR": 0.00033284, "MEAN_MOTION_DOT": 9.89e-06, "MEAN_MOTION_DDOT": 0}, "tle": {"line1": "1 31449U 99025BUM 25342.92973648  .00000989  00000+0  33284-3 0  9998", "line2": "2 31449  98.5555  41.4858 0144054 280.1106  78.3855 14.33700462975823"}}, "geometry": {"type": "Point", "coordinates": [50.083886853515864, -41.448288800436444]}}, {"type": "Feature", "properties": {"norad_id": 31451, "name": "FENGYUN 1C DEB", "group": "fengyun-1c-debris", "lat": -64.85792214101744, "lon": 45.218743814245784, "alt_km": 847.9789207112153, "timestamp": "2025-12-09T21:34:11.690480+00:00", "meta": {"OBJECT_NAME": "FENGYUN 1C DEB", "OBJECT_ID": "1999-025BUP", "EPOCH": "2025-12-08T21:13:27.598080", "MEAN_MOTION": 14.13614333, "ECCENTRICITY": 0.0030996, "INCLINATION": 98.7644, "RA_OF_ASC_NODE": 25.0348, "ARG_OF_PERICENTER": 222.5718, "MEAN_ANOMALY": 311.389, "EPHEMERIS_TYPE": 0, "CLASSIFICATION_TYPE": "U", "NORAD_CAT_ID": 31451, "ELEMENT_SET_NO": 999, "REV_AT_EPOCH": 95955, "BSTAR": 0.00049786, "MEAN_MOTION_DOT": 9e-06, "MEAN_MOTION_DDOT": 0}, "tle": {"line1": "1 31451U 99025BUP 25342.88434720  .00000900  00000+0  49786-3 0  9996", "line2": "2 31451  98.7644  25.0348 0030996 222.5718 311.3890 14.13614333959557"}}, "geometry": {"type": "Point", "coordinates": [45.218743814245784, -64.85792214101744]}}, {"type": "Feature", "properties": {"norad_id": 31452, "name": "FENGYUN 1C DEB", "group": "fengyun-1c-debris", "lat": 4.57017632442713, "lon": 151.621975657311, "alt_km": 821.3698266587926, "timestamp": "2025-12-09T21:34:11.690490+00:00", "meta": {"OBJECT_NAME": "FENGYUN 1C DEB", "OBJECT_ID": "1999-025BUQ", "EPOCH": "2025-12-08T05:43:08.652576", "MEAN_MOTION": 14.15158689, "ECCENTRICITY": 0.00406418, "INCLINATION": 98.6574, "RA_OF_ASC_NODE": 329.3128, "ARG_OF_PERICENTER": 140.4779, "MEAN_ANOMALY": 219.9371, "EPHEMERIS_TYPE": 0, "CLASSIFICATION_TYPE": "U", "NORAD_CAT_ID": 31452, "ELEMENT_SET_NO": 999, "REV_AT_EPOCH": 96142, "BSTAR": 0.00062348352, "MEAN_MOTION_DOT": 1.178e-05, "MEAN_MOTION_DDOT": 0}, "tle": {"line1": "1 31452U 99025BUQ 25342.23829459  .00001178  00000+0  62348-3 0  9990", "line2": "2 31452  98.6574 329.3128 0040641 140.4779 219.9371 14.15158689961423"}}, "geometry": {"type": "Point", "coordinates": [151.621975657311, 4.57017632442713]}}, {"type": "Feature", "properties": {"norad_id": 31455, "name": "FENGYUN 1C DEB", "group": "fengyun-1c-debris", "lat": -13.514945728368577, "lon": 150.17511129803702, "alt_km": 967.8373959946284, "timestamp": "2025-12-09T21:34:11.690501+00:00", "meta": {"OBJECT_NAME": "FENGYUN 1C DEB", "OBJECT_ID": "1999-025BUT", "EPOCH": "2025-12-01T05:06:27.684288", "MEAN_MOTION": 14.11407074, "ECCENTRICITY": 0.0218887, "INCLINATION": 98.5737, "RA_OF_ASC_NODE": 323.9486, "ARG_OF_PERICENTER": 84.0104, "MEAN_ANOMALY": 278.5966, "EPHEMERIS_TYPE": 0, "CLASSIFICATION_TYPE": "U", "NORAD_CAT_ID": 31455, "ELEMENT_SET_NO": 999, "REV_AT_EPOCH": 95941, "BSTAR": 0.00026567, "MEAN_MOTION_DOT": 5.62e-06, "MEAN_MOTION_DDOT": 0}, "tle": {"line1": "1 31455U 99025BUT 25335.21282042  .00000562  00000+0  26567-3 0  9993", "line2": "2 31455  98.5737 323.9486 0218887  84.0104 278.5966 14.11407074959415"}}, "geometry": {"type": "Point", "coordinates": [150.17511129803702, -13.514945728368577]}}, {"type": "Feature", "properties": {"norad_id": 31456, "name": "FENGYUN 1C DEB", "group": "fengyun-1c-debris", "lat": -36.685716421007136, "lon": -100.2275644530761, "alt_km": 770.017635855048, "timestamp": "2025-12-09T21:34:11.690511+00:00", "meta": {"OBJECT_NAME": "FENGYUN 1C DEB", "OBJECT_ID": "1999-025BUU", "EPOCH": "2025-12-08T12:55:41.925216", "MEAN_MOTION": 14.42364551, "ECCENTRICITY": 0.0067565, "INCLINATION": 98.5774, "RA_OF_ASC_NODE": 84.8613, "ARG_OF_PERICENTER": 327.2292, "MEAN_ANOMALY": 32.4714, "EPHEMERIS_TYPE": 0, "CLASSIFICATION_TYPE": "U", "NORAD_CAT_ID": 31456, "ELEMENT_SET_NO": 999, "REV_AT_EPOCH": 97406, "BSTAR": 0.0013396, "MEAN_MOTION_DOT": 4.506e-05, "MEAN_MOTION_DDOT": 0}, "tle": {"line1": "1 31456U 99025BUU 25342.53867969  .00004506  00000+0  13396-2 0  9991", "line2": "2 31456  98.5774  84.8613 0067565 327.2292  32.4714 14.42364551974069"}}, "geometry": {"type": "Point", "coordinates": [-100.2275644530761, -36.685716421007136]}}, {"type": "Feature", "properties": {"norad_id": 31459, "name": "FENGYUN 1C DEB", "group": "fengyun-1c-debris", "lat": 35.87867450351938, "lon": 78.24004786912609, "alt_km": 676.0065755224341, "timestamp": "2025-12-09T21:34:11.690521+00:00", "meta": {"OBJECT_NAME": "FENGYUN 1C DEB", "OBJECT_ID": "1999-025BUX", "EPOCH": "2025-12-08T23:17:29.370912", "MEAN_MOTION": 14.44022338, "ECCENTRICITY": 0.0093801, "INCLINATION": 98.1755, "RA_OF_ASC_NODE": 251.3793, "ARG_OF_PERICENTER": 143.1676, "MEAN_ANOMALY": 217.6008, "EPHEMERIS_TYPE": 0, "CLASSIFICATION_TYPE": "U", "NORAD_CAT_ID": 31459, "ELEMENT_SET_NO": 999, "REV_AT_EPOCH": 64503, "BSTAR": 0.0015164, "MEAN_MOTION_DOT": 5.43e-05, "MEAN_MOTION_DDOT": 0}, "tle": {"line1": "1 31459U 99025BUX 25342.97047883  .00005430  00000+0  15164-2 0  9999", "line2": "2 31459  98.1755 251.3793 0093801 143.1676 217.6008 14.44022338645031"}}, "geometry": {"type": "Point", "coordinates": [78.24004786912609, 35.87867450351938]}}, {"type": "Feature", "properties": {"norad_id": 31462, "name": "FENGYUN 1C DEB", "group": "fengyun-1c-debris", "lat": -75.5722273852699, "lon": 38.86110030646467, "alt_km": 848.0603618054174, "timestamp": "2025-12-09T21:34:11.690531+00:00", "meta": {"OBJECT_NAME": "FENGYUN 1C DEB", "OBJECT_ID": "1999-025BVA", "EPOCH": "2025-12-08T23:59:59.371872", "MEAN_MOTION": 14.13003114, "ECCENTRICITY": 0.00319137, "INCLINATION": 98.6906, "RA_OF_ASC_NODE": 1.5113, "ARG_OF_PERICENTER": 215.188, "MEAN_ANOMALY": 176.8218, "EPHEMERIS_TYPE": 0, "CLASSIFICATION_TYPE": "U", "NORAD_CAT_ID": 31462, "ELEMENT_SET_NO": 999, "REV_AT_EPOCH": 95803, "BSTAR": 0.00047016604, "MEAN_MOTION_DOT": 8.38e-06, "MEAN_MOTION_DDOT": 0}, "tle": {"line1": "1 31462U 99025BVA 25342.99999273  .00000838  00000+0  47017-3 0  9994", "line2": "2 31462  98.6906   1.5113 0031913 215.1880 176.8218 14.13003114958035"}}, "geometry": {"type": "Point", "coordinates": [38.86110030646467, -75.5722273852699]}}]}